{
  "type": "FeatureCollection",
  "features": [
    {
      "type": "Feature",
      "properties": {
        "norad_id": 35987,
        "name": "COSMOS 2251 DEB",
        "group": "cosmos-2251-debris",
        "lat": 73.54628132433801,
        "lon": 43.01218177450666,
        "alt_km": 708.2606722010069,
        "timestamp": "2025-12-12T16:50:33.543473+00:00",
        "meta_object_name": "COSMOS 2251 DEB",
        "meta_object_id": "1993-036AWD",
        "meta_epoch": "2025-12-11T05:30:31.150080",
        "meta_mean_motion": 14.43110132,
        "meta_eccentricity": 0.00459363,
        "meta_inclination": 74.0001,
        "meta_ra_of_asc_node": 329.4532,
        "meta_arg_of_pericenter": 95.6067,
        "meta_mean_anomaly": 265.033,
        "meta_ephemeris_type": 0,
        "meta_classification_type": "U",
        "meta_norad_cat_id": 35987,
        "meta_element_set_no": 999,
        "meta_rev_at_epoch": 61043,
        "meta_bstar": 0.0014697546,
        "meta_mean_motion_dot": 4.973e-05,
        "meta_mean_motion_ddot": 0,
        "tle_line1": "1 35987U 93036AWD 25345.22952720  .00004973  00000+0  14698-2 0  9993",
        "tle_line2": "2 35987  74.0001 329.4532 0045936  95.6067 265.0330 14.43110132610437"
      },
      "geometry": {
        "type": "Point",
        "coordinates": [
          43.01218177450666,
          73.54628132433801
        ]
      }
    },
    {
      "type": "Feature",
      "properties": {
        "norad_id": 35989,
        "name": "COSMOS 2251 DEB",
        "group": "cosmos-2251-debris",
        "lat": 45.32617058817467,
        "lon": 87.07607861024259,
        "alt_km": 773.1319969543993,
        "timestamp": "2025-12-12T16:50:33.543484+00:00",
        "meta_object_name": "COSMOS 2251 DEB",
        "meta_object_id": "1993-036AWF",
        "meta_epoch": "2025-12-10T12:26:20.084064",
        "meta_mean_motion": 14.37097303,
        "meta_eccentricity": 0.0021915,
        "meta_inclination": 74.0383,
        "meta_ra_of_asc_node": 287.9166,
        "meta_arg_of_pericenter": 10.2145,
        "meta_mean_anomaly": 349.9449,
        "meta_ephemeris_type": 0,
        "meta_classification_type": "U",
        "meta_norad_cat_id": 35989,
        "meta_element_set_no": 999,
        "meta_rev_at_epoch": 87147,
        "meta_bstar": 0.00040745,
        "meta_mean_motion_dot": 1.187e-05,
        "meta_mean_motion_ddot": 0,
        "tle_line1": "1 35989U 93036AWF 25344.51828801  .00001187  00000+0  40745-3 0  9995",
        "tle_line2": "2 35989  74.0383 287.9166 0021915  10.2145 349.9449 14.37097303871477"
      },
      "geometry": {
        "type": "Point",
        "coordinates": [
          87.07607861024259,
          45.32617058817467
        ]
      }
    },
    {
      "type": "Feature",
      "properties": {
        "norad_id": 35993,
        "name": "COSMOS 2251 DEB",
        "group": "cosmos-2251-debris",
        "lat": 6.138899270723546,
        "lon": -25.3621656485468,
        "alt_km": 696.5602144503127,
        "timestamp": "2025-12-12T16:50:33.543494+00:00",
        "meta_object_name": "COSMOS 2251 DEB",
        "meta_object_id": "1993-036AWK",
        "meta_epoch": "2025-12-12T06:58:55.226208",
        "meta_mean_motion": 14.65296374,
        "meta_eccentricity": 0.00289249,
        "meta_inclination": 74.0152,
        "meta_ra_of_asc_node": 333.6624,
        "meta_arg_of_pericenter": 163.4674,
        "meta_mean_anomaly": 196.7445,
        "meta_ephemeris_type": 0,
        "meta_classification_type": "U",
        "meta_norad_cat_id": 35993,
        "meta_element_set_no": 999,
        "meta_rev_at_epoch": 60436,
        "meta_bstar": 0.0011604815,
        "meta_mean_motion_dot": 6.273e-05,
        "meta_mean_motion_ddot": 0,
        "tle_line1": "1 35993U 93036AWK 25346.29091697  .00006273  00000+0  11605-2 0  9995",
        "tle_line2": "2 35993  74.0152 333.6624 0028924 163.4674 196.7445 14.65296374604365"
      },
      "geometry": {
        "type": "Point",
        "coordinates": [
          -25.3621656485468,
          6.138899270723546
        ]
      }
    },
    {
      "type": "Feature",
      "properties": {
        "norad_id": 35996,
        "name": "COSMOS 2251 DEB",
        "group": "cosmos-2251-debris",
        "lat": 73.26386306528292,
        "lon": 175.9119639599645,
        "alt_km": 551.404790317044,
        "timestamp": "2025-12-12T16:50:33.543504+00:00",
        "meta_object_name": "COSMOS 2251 DEB",
        "meta_object_id": "1993-036AWN",
        "meta_epoch": "2025-12-11T00:41:09.521088",
        "meta_mean_motion": 15.0906793,
        "meta_eccentricity": 0.00884253,
        "meta_inclination": 74.0157,
        "meta_ra_of_asc_node": 106.9511,
        "meta_arg_of_pericenter": 198.4339,
        "meta_mean_anomaly": 161.3644,
        "meta_ephemeris_type": 0,
        "meta_classification_type": "U",
        "meta_norad_cat_id": 35996,
        "meta_element_set_no": 999,
        "meta_rev_at_epoch": 72300,
        "meta_bstar": 0.0011651351,
        "meta_mean_motion_dot": 0.00020245,
        "meta_mean_motion_ddot": 0,
        "tle_line1": "1 35996U 93036AWN 25345.02858242  .00020245  00000+0  11651-2 0  9991",
        "tle_line2": "2 35996  74.0157 106.9511 0088425 198.4339 161.3644 15.09067930723002"
      },
      "geometry": {
        "type": "Point",
        "coordinates": [
          175.9119639599645,
          73.26386306528292
        ]
      }
    },
    {
      "type": "Feature",
      "properties": {
        "norad_id": 35997,
        "name": "COSMOS 2251 DEB",
        "group": "cosmos-2251-debris",
        "lat": -4.696633753499744,
        "lon": 8.711911083789005,
        "alt_km": 722.2797589526699,
        "timestamp": "2025-12-12T16:50:33.543514+00:00",
        "meta_object_name": "COSMOS 2251 DEB",
        "meta_object_id": "1993-036AWP",
        "meta_epoch": "2025-12-12T06:03:58.850208",
        "meta_mean_motion": 14.51308894,
        "meta_eccentricity": 0.00156756,
        "meta_inclination": 74.0432,
        "meta_ra_of_asc_node": 188.2092,
        "meta_arg_of_pericenter": 263.8458,
        "meta_mean_anomaly": 96.0917,
        "meta_ephemeris_type": 0,
        "meta_classification_type": "U",
        "meta_norad_cat_id": 35997,
        "meta_element_set_no": 999,
        "meta_rev_at_epoch": 70877,
        "meta_bstar": 0.00092768466,
        "meta_mean_motion_dot": 3.673e-05,
        "meta_mean_motion_ddot": 0,
        "tle_line1": "1 35997U 93036AWP 25346.25276447  .00003673  00000+0  92768-3 0  9994",
        "tle_line2": "2 35997  74.0432 188.2092 0015675 263.8458  96.0917 14.51308894708779"
      },
      "geometry": {
        "type": "Point",
        "coordinates": [
          8.711911083789005,
          -4.696633753499744
        ]
      }
    },
    {
      "type": "Feature",
      "properties": {
        "norad_id": 36005,
        "name": "COSMOS 2251 DEB",
        "group": "cosmos-2251-debris",
        "lat": -35.25141168335123,
        "lon": -74.24236577425656,
        "alt_km": 697.5081036255751,
        "timestamp": "2025-12-12T16:50:33.543525+00:00",
        "meta_object_name": "COSMOS 2251 DEB",
        "meta_object_id": "1993-036AWX",
        "meta_epoch": "2025-12-10T17:23:32.272512",
        "meta_mean_motion": 14.47353034,
        "meta_eccentricity": 0.00619888,
        "meta_inclination": 74.0266,
        "meta_ra_of_asc_node": 97.7757,
        "meta_arg_of_pericenter": 235.5382,
        "meta_mean_anomaly": 123.9911,
        "meta_ephemeris_type": 0,
        "meta_classification_type": "U",
        "meta_norad_cat_id": 36005,
        "meta_element_set_no": 999,
        "meta_rev_at_epoch": 87555,
        "meta_bstar": 0.00035630183,
        "meta_mean_motion_dot": 1.308e-05,
        "meta_mean_motion_ddot": 0,
        "tle_line1": "1 36005U 93036AWX 25344.72467908  .00001308  00000+0  35630-3 0  9997",
        "tle_line2": "2 36005  74.0266  97.7757 0061988 235.5382 123.9911 14.47353034875553"
      },
      "geometry": {
        "type": "Point",
        "coordinates": [
          -74.24236577425656,
          -35.25141168335123
        ]
      }
    },
    {
      "type": "Feature",
      "properties": {
        "norad_id": 36045,
        "name": "COSMOS 2251 DEB",
        "group": "cosmos-2251-debris",
        "lat": -73.7477138378549,
        "lon": -32.38625804389745,
        "alt_km": 701.0259227351644,
        "timestamp": "2025-12-12T16:50:33.543535+00:00",
        "meta_object_name": "COSMOS 2251 DEB",
        "meta_object_id": "1993-036AXG",
        "meta_epoch": "2025-12-11T13:29:08.197152",
        "meta_mean_motion": 14.69806465,
        "meta_eccentricity": 0.00482484,
        "meta_inclination": 73.7636,
        "meta_ra_of_asc_node": 61.4081,
        "meta_arg_of_pericenter": 75.4727,
        "meta_mean_anomaly": 285.1788,
        "meta_ephemeris_type": 0,
        "meta_classification_type": "U",
        "meta_norad_cat_id": 36045,
        "meta_element_set_no": 999,
        "meta_rev_at_epoch": 8371,
        "meta_bstar": 0.0031629771,
        "meta_mean_motion_dot": 0.00019249,
        "meta_mean_motion_ddot": 0,
        "tle_line1": "1 36045U 93036AXG 25345.56190043  .00019249  00000+0  31630-2 0  9995",
        "tle_line2": "2 36045  73.7636  61.4081 0048248  75.4727 285.1788 14.69806465 83717"
      },
      "geometry": {
        "type": "Point",
        "coordinates": [
          -32.38625804389745,
          -73.7477138378549
        ]
      }
    }
  ]
}